start=new Date('2022-03-20T00:00:00.000Z').valueOf();
sats=[{"MEAN_MOTION_DOT":"0.00004384","PERIAPSIS":"545.824","EPOCH":"2022-03-19T11:52:40.339776","ARG_OF_PERICENTER":"50.5461","MEAN_ANOMALY":"309.5703","RA_OF_ASC_NODE":"86.2941","REV_AT_EPOCH":"6154","INCLINATION":"53.0549","GP_ID":"199151214","OBJECT_ID":"2021-012AE","SEMIMAJOR_AXIS":"6925.332","REF_FRAME":"TEME","ECCENTRICITY":"0.00019830","EPHEMERIS_TYPE":"0","SITE":"AFETR","ELEMENT_SET_NO":"999","APOAPSIS":"548.570","MEAN_MOTION":"15.06405381","LAUNCH_DATE":"2021-02-16","TLE_LINE2":"2 47648  53.0549  86.2941 0001983  50.5461 309.5703 15.06405381 61545","MEAN_ELEMENT_THEORY":"SGP4","TLE_LINE1":"1 47648U 21012AE  22078.49491134  .00004384  00000-0  31302-3 0  9990","NORAD_CAT_ID":"47648","RCS_SIZE":"MEDIUM","FILE":"3365744","OBJECT_TYPE":"PAYLOAD","COUNTRY_CODE":"US","DECAY_DATE":null,"MEAN_MOTION_DDOT":"0.0000000000000","CLASSIFICATION_TYPE":"U","OBJECT_NAME":"STARLINK-2031","PERIOD":"95.592","TIME_SYSTEM":"UTC","CENTER_NAME":"EARTH","BSTAR":"0.00031302000000"},{"PERIAPSIS":"545.961","EPOCH":"2022-03-19T10:22:25.867776","ARG_OF_PERICENTER":"48.4652","MEAN_MOTION_DOT":"0.00000738","MEAN_ANOMALY":"311.6492","RA_OF_ASC_NODE":"86.5701","INCLINATION":"53.0538","REV_AT_EPOCH":"6153","GP_ID":"199151465","SEMIMAJOR_AXIS":"6925.349","OBJECT_ID":"2021-012AF","ECCENTRICITY":"0.00018090","REF_FRAME":"TEME","SITE":"AFETR","EPHEMERIS_TYPE":"0","MEAN_ELEMENT_THEORY":"SGP4","TLE_LINE2":"2 47649  53.0538  86.5701 0001809  48.4652 311.6492 15.06399994 61536","ELEMENT_SET_NO":"999","APOAPSIS":"548.466","LAUNCH_DATE":"2021-02-16","MEAN_MOTION":"15.06399994","TLE_LINE1":"1 47649U 21012AF  22078.43224384  .00000738  00000-0  68417-4 0  9993","NORAD_CAT_ID":"47649","FILE":"3365744","OBJECT_TYPE":"PAYLOAD","RCS_SIZE":"LARGE","PERIOD":"95.592","DECAY_DATE":null,"COUNTRY_CODE":"US","MEAN_MOTION_DDOT":"0.0000000000000","CLASSIFICATION_TYPE":"U","OBJECT_NAME":"STARLINK-2032","CENTER_NAME":"EARTH","TIME_SYSTEM":"UTC","BSTAR":"0.00006841700000"},{"SITE":"AFETR","EPHEMERIS_TYPE":"0","ECCENTRICITY":"0.00017590","REF_FRAME":"TEME","TLE_LINE1":"1 47650U 21012AG  22078.28482100  .00003156  00000-0  23069-3 0  9990","NORAD_CAT_ID":"47650","TLE_LINE2":"2 47650  53.0546  87.2324 0001759  56.1004 304.0152 15.06398200 61490","MEAN_ELEMENT_THEORY":"SGP4","APOAPSIS":"548.437","ELEMENT_SET_NO":"999","MEAN_MOTION":"15.06398200","LAUNCH_DATE":"2021-02-16","PERIOD":"95.592","DECAY_DATE":null,"COUNTRY_CODE":"US","MEAN_MOTION_DDOT":"0.0000000000000","OBJECT_NAME":"STARLINK-2033","CLASSIFICATION_TYPE":"U","FILE":"3365744","OBJECT_TYPE":"PAYLOAD","RCS_SIZE":"LARGE","BSTAR":"0.00023069000000","CENTER_NAME":"EARTH","TIME_SYSTEM":"UTC","MEAN_ANOMALY":"304.0152","EPOCH":"2022-03-19T06:50:08.534400","PERIAPSIS":"546.001","ARG_OF_PERICENTER":"56.1004","MEAN_MOTION_DOT":"0.00003156","INCLINATION":"53.0546","REV_AT_EPOCH":"6149","RA_OF_ASC_NODE":"87.2324","SEMIMAJOR_AXIS":"6925.354","OBJECT_ID":"2021-012AG","GP_ID":"199150213"},{"CENTER_NAME":"EARTH","TIME_SYSTEM":"UTC","BSTAR":"0.00013980000000","FILE":"3366144","RCS_SIZE":"LARGE","OBJECT_TYPE":"PAYLOAD","PERIOD":"95.591","MEAN_MOTION_DDOT":"0.0000000000000","DECAY_DATE":null,"COUNTRY_CODE":"US","OBJECT_NAME":"STARLINK-2035","CLASSIFICATION_TYPE":"U","TLE_LINE2":"2 47651  53.0530 104.9982 0001354  54.4450 305.6665 15.06410626 61301","MEAN_ELEMENT_THEORY":"SGP4","APOAPSIS":"548.119","ELEMENT_SET_NO":"999","LAUNCH_DATE":"2021-02-16","MEAN_MOTION":"15.06410626","TLE_LINE1":"1 47651U 21012AH  22078.78331273  .00001802  00000-0  13980-3 0  9997","NORAD_CAT_ID":"47651","ECCENTRICITY":"0.00013540","REF_FRAME":"TEME","SITE":"AFETR","EPHEMERIS_TYPE":"0","GP_ID":"199185402","SEMIMAJOR_AXIS":"6925.316","OBJECT_ID":"2021-012AH","RA_OF_ASC_NODE":"104.9982","INCLINATION":"53.0530","REV_AT_EPOCH":"6130","PERIAPSIS":"546.243","EPOCH":"2022-03-19T18:47:58.219872","ARG_OF_PERICENTER":"54.4450","MEAN_MOTION_DOT":"0.00001802","MEAN_ANOMALY":"305.6665"},{"ECCENTRICITY":"0.00018220","REF_FRAME":"TEME","SITE":"AFETR","EPHEMERIS_TYPE":"0","TLE_LINE2":"2 47652  53.0538 106.0701 0001822  50.6344 309.4806 15.06410685 61261","MEAN_ELEMENT_THEORY":"SGP4","APOAPSIS":"548.443","ELEMENT_SET_NO":"999","MEAN_MOTION":"15.06410685","LAUNCH_DATE":"2021-02-16","TLE_LINE1":"1 47652U 21012AJ  22078.54466624  .00001592  00000-0  12571-3 0  9992","NORAD_CAT_ID":"47652","RCS_SIZE":"LARGE","FILE":"3366144","OBJECT_TYPE":"PAYLOAD","PERIOD":"95.591","DECAY_DATE":null,"COUNTRY_CODE":"US","MEAN_MOTION_DDOT":"0.0000000000000","CLASSIFICATION_TYPE":"U","OBJECT_NAME":"STARLINK-2036","CENTER_NAME":"EARTH","TIME_SYSTEM":"UTC","BSTAR":"0.00012571000000","EPOCH":"2022-03-19T13:04:19.163136","PERIAPSIS":"545.919","ARG_OF_PERICENTER":"50.6344","MEAN_MOTION_DOT":"0.00001592","MEAN_ANOMALY":"309.4806","RA_OF_ASC_NODE":"106.0701","INCLINATION":"53.0538","REV_AT_EPOCH":"6126","GP_ID":"199185652","SEMIMAJOR_AXIS":"6925.316","OBJECT_ID":"2021-012AJ"},{"PERIOD":"95.592","DECAY_DATE":null,"MEAN_MOTION_DDOT":"0.0000000000000","COUNTRY_CODE":"US","OBJECT_NAME":"STARLINK-2037","CLASSIFICATION_TYPE":"U","OBJECT_TYPE":"PAYLOAD","FILE":"3366144","RCS_SIZE":"LARGE","BSTAR":"0.00030864000000","CENTER_NAME":"EARTH","TIME_SYSTEM":"UTC","SITE":"AFETR","EPHEMERIS_TYPE":"0","ECCENTRICITY":"0.00019430","REF_FRAME":"TEME","TLE_LINE1":"1 47653U 21012AK  22078.73819101  .00004319  00000-0  30864-3 0  9991","NORAD_CAT_ID":"47653","TLE_LINE2":"2 47653  53.0537  85.1826 0001943  45.2408 314.8738 15.06407798 61569","MEAN_ELEMENT_THEORY":"SGP4","APOAPSIS":"548.535","ELEMENT_SET_NO":"999","LAUNCH_DATE":"2021-02-16","MEAN_MOTION":"15.06407798","SEMIMAJOR_AXIS":"6925.325","OBJECT_ID":"2021-012AK","GP_ID":"199185903","MEAN_ANOMALY":"314.8738","PERIAPSIS":"545.844","EPOCH":"2022-03-19T17:42:59.703264","ARG_OF_PERICENTER":"45.2408","MEAN_MOTION_DOT":"0.00004319","INCLINATION":"53.0537","REV_AT_EPOCH":"6156","RA_OF_ASC_NODE":"85.1826"},{"CENTER_NAME":"EARTH","TIME_SYSTEM":"UTC","BSTAR":"0.00035027000000","FILE":"3366144","RCS_SIZE":"LARGE","OBJECT_TYPE":"PAYLOAD","PERIOD":"95.591","COUNTRY_CODE":"US","DECAY_DATE":null,"MEAN_MOTION_DDOT":"0.0000000000000","OBJECT_NAME":"STARLINK-2038","CLASSIFICATION_TYPE":"U","TLE_LINE2":"2 47654  53.0524 106.0434 0002554  38.4960 321.6210 15.06421754 61266","MEAN_ELEMENT_THEORY":"SGP4","ELEMENT_SET_NO":"999","APOAPSIS":"548.916","LAUNCH_DATE":"2021-02-16","MEAN_MOTION":"15.06421754","TLE_LINE1":"1 47654U 21012AL  22078.54836660  .00004942  00000-0  35027-3 0  9998","NORAD_CAT_ID":"47654","ECCENTRICITY":"0.00025540","REF_FRAME":"TEME","SITE":"AFETR","EPHEMERIS_TYPE":"0","GP_ID":"199186128","SEMIMAJOR_AXIS":"6925.282","OBJECT_ID":"2021-012AL","RA_OF_ASC_NODE":"106.0434","INCLINATION":"53.0524","REV_AT_EPOCH":"6126","PERIAPSIS":"545.378","EPOCH":"2022-03-19T13:09:38.874240","ARG_OF_PERICENTER":"38.4960","MEAN_MOTION_DOT":"0.00004942","MEAN_ANOMALY":"321.6210"},{"NORAD_CAT_ID":"47655","TLE_LINE1":"1 47655U 21012AM  22078.47464390  .00006580  00000-0  46006-3 0  9997","MEAN_MOTION":"15.06411622","LAUNCH_DATE":"2021-02-16","APOAPSIS":"548.280","ELEMENT_SET_NO":"999","TLE_LINE2":"2 47655  53.0533 106.3771 0001591  57.9621 302.1522 15.06411622 61256","MEAN_ELEMENT_THEORY":"SGP4","EPHEMERIS_TYPE":"0","SITE":"AFETR","REF_FRAME":"TEME","ECCENTRICITY":"0.00015910","BSTAR":"0.00046006000000","TIME_SYSTEM":"UTC","CENTER_NAME":"EARTH","OBJECT_NAME":"STARLINK-2039","CLASSIFICATION_TYPE":"U","DECAY_DATE":null,"COUNTRY_CODE":"US","MEAN_MOTION_DDOT":"0.0000000000000","PERIOD":"95.591","RCS_SIZE":"LARGE","FILE":"3365744","OBJECT_TYPE":"PAYLOAD","REV_AT_EPOCH":"6125","INCLINATION":"53.0533","RA_OF_ASC_NODE":"106.3771","MEAN_ANOMALY":"302.1522","MEAN_MOTION_DOT":"0.00006580","ARG_OF_PERICENTER":"57.9621","EPOCH":"2022-03-19T11:23:29.232960","PERIAPSIS":"546.076","OBJECT_ID":"2021-012AM","SEMIMAJOR_AXIS":"6925.313","GP_ID":"199150964"},{"REV_AT_EPOCH":"6101","INCLINATION":"53.0541","RA_OF_ASC_NODE":"86.3003","MEAN_ANOMALY":"310.1459","MEAN_MOTION_DOT":"0.00005875","PERIAPSIS":"545.788","EPOCH":"2022-03-19T11:47:22.389504","ARG_OF_PERICENTER":"49.9705","OBJECT_ID":"2021-012AN","SEMIMAJOR_AXIS":"6925.308","GP_ID":"199156862","TLE_LINE1":"1 47656U 21012AN  22078.49123136  .00005875  00000-0  41284-3 0  9999","NORAD_CAT_ID":"47656","ELEMENT_SET_NO":"999","APOAPSIS":"548.559","MEAN_MOTION":"15.06413109","LAUNCH_DATE":"2021-02-16","MEAN_ELEMENT_THEORY":"SGP4","TLE_LINE2":"2 47656  53.0541  86.3003 0002001  49.9705 310.1459 15.06413109 61016","EPHEMERIS_TYPE":"0","SITE":"AFETR","REF_FRAME":"TEME","ECCENTRICITY":"0.00020010","BSTAR":"0.00041284000000","TIME_SYSTEM":"UTC","CENTER_NAME":"EARTH","COUNTRY_CODE":"US","DECAY_DATE":null,"MEAN_MOTION_DDOT":"0.0000000000000","CLASSIFICATION_TYPE":"U","OBJECT_NAME":"STARLINK-2040","PERIOD":"95.591","OBJECT_TYPE":"PAYLOAD","FILE":"3365839","RCS_SIZE":"LARGE"},{"MEAN_MOTION":"15.06404400","LAUNCH_DATE":"2021-02-16","ELEMENT_SET_NO":"999","APOAPSIS":"548.331","TLE_LINE2":"2 47657  53.0534 105.0931 0001633  66.2012 293.9148 15.06404400 61298","MEAN_ELEMENT_THEORY":"SGP4","NORAD_CAT_ID":"47657","TLE_LINE1":"1 47657U 21012AP  22078.76214315  .00001018  00000-0  87254-4 0  9993","REF_FRAME":"TEME","ECCENTRICITY":"0.00016330","EPHEMERIS_TYPE":"0","SITE":"AFETR","TIME_SYSTEM":"UTC","CENTER_NAME":"EARTH","BSTAR":"0.00008725400000","RCS_SIZE":"LARGE","FILE":"3366144","OBJECT_TYPE":"PAYLOAD","OBJECT_NAME":"STARLINK-2041","CLASSIFICATION_TYPE":"U","DECAY_DATE":null,"MEAN_MOTION_DDOT":"0.0000000000000","COUNTRY_CODE":"US","PERIOD":"95.592","RA_OF_ASC_NODE":"105.0931","REV_AT_EPOCH":"6129","INCLINATION":"53.0534","MEAN_MOTION_DOT":"0.00001018","ARG_OF_PERICENTER":"66.2012","PERIAPSIS":"546.069","EPOCH":"2022-03-19T18:17:29.168160","MEAN_ANOMALY":"293.9148","GP_ID":"199186404","OBJECT_ID":"2021-012AP","SEMIMAJOR_AXIS":"6925.335"}];
